#cP2010 10 27  0  0  0.00000000      96 ORBIT IGS05 HLM  IGS
## 1607 259200.00000000   900.00000000 55496 0.0000000000000
+   32   G01G02G03G04G05G06G07G08G09G10G11G12G13G14G15G16G17
+        G18G19G20G21G22G23G24G25G26G27G28G29G30G31G32  0  0
+          0  0  0  0  0  0  0  0  0  0  0  0  0  0  0  0  0
+          0  0  0  0  0  0  0  0  0  0  0  0  0  0  0  0  0
+          0  0  0  0  0  0  0  0  0  0  0  0  0  0  0  0  0
++         5  2  2  2  2  2  2  3  3  2  2  2  2  2  2  2  2
++         2  2  2  2  2  3  2  3  2  2  2  2  2  2  2  0  0
++         0  0  0  0  0  0  0  0  0  0  0  0  0  0  0  0  0
++         0  0  0  0  0  0  0  0  0  0  0  0  0  0  0  0  0
++         0  0  0  0  0  0  0  0  0  0  0  0  0  0  0  0  0
%c G  cc GPS ccc cccc cccc cccc cccc ccccc ccccc ccccc ccccc
%c cc cc ccc ccc cccc cccc cccc cccc ccccc ccccc ccccc ccccc
%f  1.2500000  1.025000000  0.00000000000  0.000000000000000
%f  0.0000000  0.000000000  0.00000000000  0.000000000000000
%i    0    0    0    0      0      0      0      0         0
%i    0    0    0    0      0      0      0      0         0
/* FINAL ORBIT COMBINATION FROM WEIGHTED AVERAGE OF:        
/* cod emr esa gfz grg jpl mit ngs sio                      
/* REFERENCED TO IGS TIME (IGST) AND TO WEIGHTED MEAN POLE: 
/* PCV:IGS05_1604 OL/AL:FES2004  NONE     Y  ORB:CMB CLK:CMB
*  2010 10 27 21  0  0.00000000
PG01  -5533.229431  23875.802952   9957.549337 999999.999999
PG02  -2632.377723 -17495.528160  19938.463812    298.435447  8  7  4 125       
PG03  -1700.807397  19401.729870 -18314.130148    627.300541  7  7  6 112       
PG04  10587.246878 -11926.276168  21084.913908    204.672541  8  6  3  99       
PG05  -2896.134282 -26273.989613  -1997.759416    -58.164570 10  7  6 126       
PG06  -7791.834905  19862.610540 -15542.711558    440.566261  7  7  6 114       
PG07  24008.265883   4065.865994 -10847.399712     -1.096509  6  7  8 136       
PG08  17984.368740  -3785.240901 -19376.710662      6.874003  7  6  7  52       
PG09 -20031.738754 -15663.336720  -8235.619331     38.947456  9  9  6  65       
PG10   7433.885756 -22501.282888  11424.405501    -56.324343  8  4  3 121       
PG11  24160.980635  10209.376815  -5526.202546    -99.603797  7  6  4 148       
PG12 -11563.313664 -18006.495274  15862.152291    -59.437196  9  8  7 126       
PG13  23148.966027  -3404.712526  12484.629384    293.718301  8  7  5  85       
PG14 -20780.971368  15744.054172   4812.360064    101.935656  7  8  7 129       
PG15  -9965.147269 -11817.801733 -21585.632795   -190.515027 11  9  7 131       
PG16  -1735.386159  26127.604331   3461.582283   -121.025431  9  7  7 113       
PG17  21708.984482 -14974.898349   1981.968629    175.567313  5  5  8 103       
PG18 -15477.046102   2638.979946 -21107.462532    101.316122  8  8  5 108       
PG19   8315.385509  12856.018269 -21702.216269    -77.983664  7  8  8 139       
PG20  13461.793173  15989.331782  16290.012717     49.955123  6  7  6 141       
PG21 -23724.042819  -2383.304543 -11958.670353    -98.170840  7  8  7  93       
PG22 -12203.498301  16014.909561 -17104.729283    160.069228  6  6  7 122       
PG23  17535.292131   4781.696148  19477.795441    346.703827  8  8  7 125       
PG24  13211.862459  18787.851373 -13519.593004    333.779037  8  9  6 134       
PG25 -15167.718778  -5119.402206  21172.143776    -48.096775  8  7  6  93       
PG26   1806.765053 -16772.314414 -20967.766662    -38.433681  6  8  6 115       
PG27 -16494.678679 -16422.493151 -12313.988156    202.235225  9  8  7  90       
PG28  12750.553278 -12646.397586 -18980.933717      2.135709  6  6  7 131       
PG29 -22560.278657   2280.979704  13876.011660    159.357789  9  9  7 133       
PG30 -14642.680526   4337.971500  21326.154956    291.112781  7  8  4 136       
PG31  -7014.170839  13176.224802  22179.745341      3.106097  7  8  4 140       
PG32   8132.687841  22319.767921  12578.835706   -118.255291  7  6  6 128       
*  2010 10 27 21 15  0.00000000
PG01  -5864.938658  22600.542399  12422.254856 999999.999999
PG02   -476.227305 -16614.726916  20798.375033    298.437491  7  7  5 129       
PG03  -3293.088338  20556.473492 -16703.231211    627.304805  6  7  6 111       
PG04  12755.348297 -10847.746756  20496.217648    204.681156  8  6  4 102       
PG05  -2628.315090 -26362.707328    854.518161    -58.169916 10  6  5 126       
PG06  -9289.567653  20705.294342 -13490.787574    440.554073  6  7  7 113       
PG07  24910.832197   4697.706396  -8265.030783     -1.096417  6  7  8 151       
PG08  19785.488998  -2699.581815 -17784.181090      6.874398  7  6  7  91       
PG09 -19032.359352 -15403.605533 -10851.872236     38.950185  8  9  7  62       
PG10   7785.076890 -21038.895286  13739.608117    -56.326245  8  5  3 130       
PG11  23350.661899  10457.448090  -8061.780787    -99.606355  7  5  5 136       
PG12 -11534.325216 -19694.344808  13744.039359    -59.433619  9  8  7 121       
PG13  21863.234877  -2488.065541  14778.862638    293.717204  9  7  6  83       
PG14 -21197.029312  15774.629275   1935.588243    101.938867  7  8  7 126       
PG15  -7956.569012 -13265.469939 -21566.136003   -190.510631 11  9  6 125       
PG16  -2000.210344  25583.669739   6286.626671   -121.028467  8  7  7 116       
PG17  21903.210150 -14774.489096   -884.870247    175.568304  6  6  7 109       
PG18 -15663.900601    155.206339 -21167.130226    101.317859  9  8  5 107       
PG19   6163.108143  14093.253638 -21623.202220    -77.986574  6  8  8 141       
PG20  13450.996013  17782.494914  14345.718985     49.955077  6  7  6 141       
PG21 -24754.514187  -3162.783865  -9576.269077    -98.173140  7  8  7  82       
PG22 -12521.058485  13944.524078 -18615.409648    160.068482  6  7  7 126       
PG23  15695.487158   6137.498078  20603.814089    346.702030  9  8  7 129       
PG24  11647.117284  18178.186353 -15597.058685    333.782907  8  9  7 125       
PG25 -15333.279358  -7493.585774  20328.775894    -48.098765  8  7  5  79       
PG26   3753.862691 -17843.628343 -19719.230243    -38.440743  6  8  6  78       
PG27 -14922.722550 -15956.828761 -14577.887788    202.239869  9  8  7  94       
PG28  12981.565862 -10311.195852 -20193.356060      2.136979  7  6  7 127       
PG29 -21239.244842   1200.928932  15955.876154    159.360399  9  9  7 133       
PG30 -14984.294083   1824.297847  21450.265875    291.114761  7  8  4 135       
PG31  -9247.498246  12108.611821  21982.389876      3.109272  7  8  4 132       
PG32   7939.311126  23565.957373  10164.679575   -118.263057  7  6  6 117       
*  2010 10 27 21 30  0.00000000
PG01  -6303.359498  21078.733036  14670.445074 999999.999999
PG02   1796.611583 -15812.316226  21302.966699    298.439633  6  6  5 128       
PG03  -4695.985569  21647.481291 -14809.107175    627.308856  6  7  6 113       
PG04  14888.797191  -9909.701549  19551.077216    204.689858  8  6  4  99       
PG05  -2317.814729 -26145.819889   3691.996461    -58.175230  9  5  5 115       
PG06 -10559.588666  21455.709303 -11202.467731    440.541855  6  7  7 126       
PG07  25568.631236   5167.189751  -5542.045361     -1.096261  7  6  8 151       
PG08  21467.567673  -1808.860582 -15891.714614      6.873744  7  6  8  57       
PG09 -17757.944116 -15100.693977 -13285.985756     38.951961  8 10  8  51       
PG10   8239.025489 -19346.843762  15811.461113    -56.327602  7  5  3 136       
PG11  22282.384739  10699.063541 -10462.683641    -99.609005  7  5  5 146       
PG12 -11563.370568 -21130.690166  11391.562106    -59.430289 10  8  7 131       
PG13  20426.952451  -1360.101012  16817.213011    293.716109  9  7  5  77       
PG14 -21343.312060  15636.136714   -974.731914    101.941863  7  8  7 128       
PG15  -6040.786198 -14799.076828 -21174.721500   -190.506403 11  8  6 137       
PG16  -2329.761245  24740.983983   9001.760769   -121.031307  7  7  7 126       
PG17  21847.374517 -14388.515246  -3736.253297    175.569406  6  7  7 120       
PG18 -15965.775684  -2298.558115 -20853.100648    101.319877  9  8  5 100       
PG19   4099.728327  15424.721052 -21171.117290    -77.989620  6  8  8 142       
PG20  13485.446390  19342.586714  12153.221368     49.954302  6  7  6 144       
PG21 -25564.877174  -3781.454033  -7032.122244    -98.175342  7  7  7 101       
PG22 -12954.205429  11739.250260 -19800.464355    160.068097  6  7  6 134       
PG23  13843.574239   7657.273183  21377.604701    346.700217  9  8  7 130       
PG24   9852.571002  17556.887618 -17408.318576    333.785008  7  9  7 128       
PG25 -15603.934575  -9741.983168  19134.922058    -48.100730  8  7  5  70       
PG26   5512.174195 -18937.886602 -18142.518858    -38.447714  5  8  6 112       
PG27 -13088.464981 -15499.356661 -16582.318160    202.244561  9  8  7  89       
PG28  13347.218337  -7872.963425 -21040.787285      2.138880  7  6  7 135       
PG29 -19799.846775    -76.003447  17762.143826    159.362946  9  9  7 131       
PG30 -15450.908448   -661.038335  21191.186469    291.117581  7  8  5 136       
PG31 -11495.580015  11183.335065  21414.610604      3.112243  7  8  4 127       
PG32   7794.020004  24543.321553   7581.463199   -118.270799  7  6  7 122       
EOF
